{"type": "FeatureCollection", "features": [{"type": "Feature", "properties": {"norad_id": 2807, "name": "OPS 7218 (TRANSIT 16)", "group": "nnss", "lat": 73.45807325464769, "lon": 172.67585057525594, "alt_km": 1046.5231883484548, "timestamp": "2025-12-19T22:41:52.660243+00:00", "meta": {"OBJECT_NAME": "OPS 7218 (TRANSIT 16)", "OBJECT_ID": "1967-048A", "EPOCH": "2025-12-19T10:34:01.367904", "MEAN_MOTION": 13.50723636, "ECCENTRICITY": 0.0022134, "INCLINATION": 89.6731, "RA_OF_ASC_NODE": 353.7939, "ARG_OF_PERICENTER": 96.2167, "MEAN_ANOMALY": 73.8764, "EPHEMERIS_TYPE": 0, "CLASSIFICATION_TYPE": "U", "NORAD_CAT_ID": 2807, "ELEMENT_SET_NO": 999, "REV_AT_EPOCH": 88366, "BSTAR": 0.00015972, "MEAN_MOTION_DOT": 1.13e-06, "MEAN_MOTION_DDOT": 0}, "tle": {"line1": "1 02807U 67048A   25353.44029361  .00000113  00000+0  15972-3 0  9990", "line2": "2 02807  89.6731 353.7939 0022134  96.2167  73.8764 13.50723636883667"}}, "geometry": {"type": "Point", "coordinates": [172.67585057525594, 73.45807325464769]}}, {"type": "Feature", "properties": {"norad_id": 2965, "name": "OPS 4947 (TRANSIT 17)", "group": "nnss", "lat": -62.026205588606516, "lon": -154.69871112832342, "alt_km": 1036.4193007828835, "timestamp": "2025-12-19T22:41:52.660265+00:00", "meta": {"OBJECT_NAME": "OPS 4947 (TRANSIT 17)", "OBJECT_ID": "1967-092A", "EPOCH": "2025-12-19T13:26:52.276128", "MEAN_MOTION": 13.53455287, "ECCENTRICITY": 0.0046652, "INCLINATION": 89.2489, "RA_OF_ASC_NODE": 23.9154, "ARG_OF_PERICENTER": 214.1761, "MEAN_ANOMALY": 310.7216, "EPHEMERIS_TYPE": 0, "CLASSIFICATION_TYPE": "U", "NORAD_CAT_ID": 2965, "ELEMENT_SET_NO": 999, "REV_AT_EPOCH": 87189, "BSTAR": 0.00020041, "MEAN_MOTION_DOT": 1.47e-06, "MEAN_MOTION_DDOT": 0}, "tle": {"line1": "1 02965U 67092A   25353.56032727  .00000147  00000+0  20041-3 0  9997", "line2": "2 02965  89.2489  23.9154 0046652 214.1761 310.7216 13.53455287871899"}}, "geometry": {"type": "Point", "coordinates": [-154.69871112832342, -62.026205588606516]}}, {"type": "Feature", "properties": {"norad_id": 3133, "name": "OPS 7034 (TRANSIT 18)", "group": "nnss", "lat": -18.33115497341555, "lon": -86.33125999861558, "alt_km": 1125.4551875663956, "timestamp": "2025-12-19T22:41:52.660279+00:00", "meta": {"OBJECT_NAME": "OPS 7034 (TRANSIT 18)", "OBJECT_ID": "1968-012A", "EPOCH": "2025-12-19T12:58:57.137376", "MEAN_MOTION": 13.51567181, "ECCENTRICITY": 0.007451, "INCLINATION": 90.0283, "RA_OF_ASC_NODE": 273.6582, "ARG_OF_PERICENTER": 149.5169, "MEAN_ANOMALY": 23.9801, "EPHEMERIS_TYPE": 0, "CLASSIFICATION_TYPE": "U", "NORAD_CAT_ID": 3133, "ELEMENT_SET_NO": 999, "REV_AT_EPOCH": 57010, "BSTAR": 0.00014664, "MEAN_MOTION_DOT": 1.07e-06, "MEAN_MOTION_DDOT": 0}, "tle": {"line1": "1 03133U 68012A   25353.54093909  .00000107  00000+0  14664-3 0  9995", "line2": "2 03133  90.0283 273.6582 0074510 149.5169  23.9801 13.51567181570103"}}, "geometry": {"type": "Point", "coordinates": [-86.33125999861558, -18.33115497341555]}}, {"type": "Feature", "properties": {"norad_id": 4507, "name": "NNSS 19 (TRANSIT 19)", "group": "nnss", "lat": -52.007709507501154, "lon": -125.45470481029614, "alt_km": 970.8206993920721, "timestamp": "2025-12-19T22:41:52.660291+00:00", "meta": {"OBJECT_NAME": "NNSS 19 (TRANSIT 19)", "OBJECT_ID": "1970-067A", "EPOCH": "2025-12-19T10:30:40.010112", "MEAN_MOTION": 13.51316335, "ECCENTRICITY": 0.0170266, "INCLINATION": 90.0051, "RA_OF_ASC_NODE": 234.5385, "ARG_OF_PERICENTER": 273.7805, "MEAN_ANOMALY": 84.3893, "EPHEMERIS_TYPE": 0, "CLASSIFICATION_TYPE": "U", "NORAD_CAT_ID": 4507, "ELEMENT_SET_NO": 999, "REV_AT_EPOCH": 72312, "BSTAR": 0.00012075, "MEAN_MOTION_DOT": 9.3e-07, "MEAN_MOTION_DDOT": 0}, "tle": {"line1": "1 04507U 70067A   25353.43796308  .00000093  00000+0  12075-3 0  9993", "line2": "2 04507  90.0051 234.5385 0170266 273.7805  84.3893 13.51316335723128"}}, "geometry": {"type": "Point", "coordinates": [-125.45470481029614, -52.007709507501154]}}, {"type": "Feature", "properties": {"norad_id": 6909, "name": "NNSS 20 (TRANSIT 20)", "group": "nnss", "lat": -2.4093471408484315, "lon": 74.95222200499815, "alt_km": 1063.2204123364863, "timestamp": "2025-12-19T22:41:52.660302+00:00", "meta": {"OBJECT_NAME": "NNSS 20 (TRANSIT 20)", "OBJECT_ID": "1973-081A", "EPOCH": "2025-12-19T11:19:12.247392", "MEAN_MOTION": 13.71437552, "ECCENTRICITY": 0.0156459, "INCLINATION": 89.8562, "RA_OF_ASC_NODE": 254.9533, "ARG_OF_PERICENTER": 58.3821, "MEAN_ANOMALY": 303.2502, "EPHEMERIS_TYPE": 0, "CLASSIFICATION_TYPE": "U", "NORAD_CAT_ID": 6909, "ELEMENT_SET_NO": 999, "REV_AT_EPOCH": 80453, "BSTAR": 0.00023103, "MEAN_MOTION_DOT": 2.38e-06, "MEAN_MOTION_DDOT": 0}, "tle": {"line1": "1 06909U 73081A   25353.47166953  .00000238  00000+0  23103-3 0  9996", "line2": "2 06909  89.8562 254.9533 0156459  58.3821 303.2502 13.71437552804535"}}, "geometry": {"type": "Point", "coordinates": [74.95222200499815, -2.4093471408484315]}}, {"type": "Feature", "properties": {"norad_id": 10457, "name": "TRANSAT", "group": "nnss", "lat": -70.83592995190789, "lon": -100.64484346502991, "alt_km": 1080.772127750045, "timestamp": "2025-12-19T22:41:52.660313+00:00", "meta": {"OBJECT_NAME": "TRANSAT", "OBJECT_ID": "1977-106A", "EPOCH": "2025-12-19T12:36:55.029888", "MEAN_MOTION": 13.48944557, "ECCENTRICITY": 0.0026036, "INCLINATION": 89.6481, "RA_OF_ASC_NODE": 78.3568, "ARG_OF_PERICENTER": 170.0412, "MEAN_ANOMALY": 201.5276, "EPHEMERIS_TYPE": 0, "CLASSIFICATION_TYPE": "U", "NORAD_CAT_ID": 10457, "ELEMENT_SET_NO": 999, "REV_AT_EPOCH": 36835, "BSTAR": 0.00010505, "MEAN_MOTION_DOT": 7.6e-07, "MEAN_MOTION_DDOT": 0}, "tle": {"line1": "1 10457U 77106A   25353.52563692  .00000076  00000+0  10505-3 0  9990", "line2": "2 10457  89.6481  78.3568 0026036 170.0412 201.5276 13.48944557368352"}}, "geometry": {"type": "Point", "coordinates": [-100.64484346502991, -70.83592995190789]}}, {"type": "Feature", "properties": {"norad_id": 12458, "name": "NOVA 1", "group": "nnss", "lat": -27.402793391364877, "lon": -88.64016987230411, "alt_km": 1184.1333937968393, "timestamp": "2025-12-19T22:41:52.660324+00:00", "meta": {"OBJECT_NAME": "NOVA 1", "OBJECT_ID": "1981-044A", "EPOCH": "2025-12-19T17:03:49.326048", "MEAN_MOTION": 13.23279008, "ECCENTRICITY": 0.0015872, "INCLINATION": 89.8528, "RA_OF_ASC_NODE": 91.2868, "ARG_OF_PERICENTER": 86.8826, "MEAN_ANOMALY": 82.5521, "EPHEMERIS_TYPE": 0, "CLASSIFICATION_TYPE": "U", "NORAD_CAT_ID": 12458, "ELEMENT_SET_NO": 999, "REV_AT_EPOCH": 15278, "BSTAR": 9.9067e-05, "MEAN_MOTION_DOT": 5.1e-07, "MEAN_MOTION_DDOT": 0}, "tle": {"line1": "1 12458U 81044A   25353.71098757  .00000051  00000+0  99067-4 0  9999", "line2": "2 12458  89.8528  91.2868 0015872  86.8826  82.5521 13.23279008152788"}}, "geometry": {"type": "Point", "coordinates": [-88.64016987230411, -27.402793391364877]}}, {"type": "Feature", "properties": {"norad_id": 15362, "name": "NOVA 3", "group": "nnss", "lat": 74.02772283355246, "lon": 80.19263731369364, "alt_km": 1178.3544175886627, "timestamp": "2025-12-19T22:41:52.660335+00:00", "meta": {"OBJECT_NAME": "NOVA 3", "OBJECT_ID": "1984-110A", "EPOCH": "2025-12-19T11:29:40.293312", "MEAN_MOTION": 13.23045275, "ECCENTRICITY": 0.0030034, "INCLINATION": 90.1221, "RA_OF_ASC_NODE": 80.614, "ARG_OF_PERICENTER": 312.622, "MEAN_ANOMALY": 59.034, "EPHEMERIS_TYPE": 0, "CLASSIFICATION_TYPE": "U", "NORAD_CAT_ID": 15362, "ELEMENT_SET_NO": 999, "REV_AT_EPOCH": 98788, "BSTAR": 9.0213e-05, "MEAN_MOTION_DOT": 4.6e-07, "MEAN_MOTION_DDOT": 0}, "tle": {"line1": "1 15362U 84110A   25353.47893858  .00000046  00000+0  90213-4 0  9999", "line2": "2 15362  90.1221  80.6140 0030034 312.6220  59.0340 13.23045275987882"}}, "geometry": {"type": "Point", "coordinates": [80.19263731369364, 74.02772283355246]}}, {"type": "Feature", "properties": {"norad_id": 15935, "name": "OSCAR 30", "group": "nnss", "lat": 45.91912404359436, "lon": -79.86388940636427, "alt_km": 1075.1182702400065, "timestamp": "2025-12-19T22:41:52.660346+00:00", "meta": {"OBJECT_NAME": "OSCAR 30", "OBJECT_ID": "1985-066A", "EPOCH": "2025-12-19T13:06:55.636128", "MEAN_MOTION": 13.3607924, "ECCENTRICITY": 0.0169224, "INCLINATION": 90.1656, "RA_OF_ASC_NODE": 99.9585, "ARG_OF_PERICENTER": 64.9065, "MEAN_ANOMALY": 307.9619, "EPHEMERIS_TYPE": 0, "CLASSIFICATION_TYPE": "U", "NORAD_CAT_ID": 15935, "ELEMENT_SET_NO": 999, "REV_AT_EPOCH": 96544, "BSTAR": 9.8407e-05, "MEAN_MOTION_DOT": 6.5e-07, "MEAN_MOTION_DDOT": 0}, "tle": {"line1": "1 15935U 85066A   25353.54647727  .00000065  00000+0  98407-4 0  9990", "line2": "2 15935  90.1656  99.9585 0169224  64.9065 307.9619 13.36079240965449"}}, "geometry": {"type": "Point", "coordinates": [-79.86388940636427, 45.91912404359436]}}, {"type": "Feature", "properties": {"norad_id": 15936, "name": "OSCAR 24", "group": "nnss", "lat": -25.336321110237495, "lon": -87.65207002312144, "alt_km": 1219.3829143582134, "timestamp": "2025-12-19T22:41:52.660356+00:00", "meta": {"OBJECT_NAME": "OSCAR 24", "OBJECT_ID": "1985-066B", "EPOCH": "2025-12-19T05:39:09.151776", "MEAN_MOTION": 13.35936599, "ECCENTRICITY": 0.0170373, "INCLINATION": 90.1792, "RA_OF_ASC_NODE": 92.4203, "ARG_OF_PERICENTER": 72.2157, "MEAN_ANOMALY": 317.8855, "EPHEMERIS_TYPE": 0, "CLASSIFICATION_TYPE": "U", "NORAD_CAT_ID": 15936, "ELEMENT_SET_NO": 999, "REV_AT_EPOCH": 96730, "BSTAR": 9.8904e-05, "MEAN_MOTION_DOT": 6.5e-07, "MEAN_MOTION_DDOT": 0}, "tle": {"line1": "1 15936U 85066B   25353.23552259  .00000065  00000+0  98904-4 0  9994", "line2": "2 15936  90.1792  92.4203 0170373  72.2157 317.8855 13.35936599967304"}}, "geometry": {"type": "Point", "coordinates": [-87.65207002312144, -25.336321110237495]}}]}